[{"OBJECT_NAME":"STARLINK-6195","OBJECT_ID":"2023-083AC","EPOCH":"2026-03-09T22:00:01.999584","MEAN_MOTION":15.07269312,"ECCENTRICITY":6.955e-5,"INCLINATION":43.0005,"RA_OF_ASC_NODE":67.9352,"ARG_OF_PERICENTER":280.3528,"MEAN_ANOMALY":308.3856,"EPHEMERIS_TYPE":0,"CLASSIFICATION_TYPE":"U","NORAD_CAT_ID":56902,"ELEMENT_SET_NO":999,"REV_AT_EPOCH":572,"BSTAR":0.0038377951,"MEAN_MOTION_DOT":0.0005915,"MEAN_MOTION_DDOT":0},{"OBJECT_NAME":"OBJECT G","OBJECT_ID":"2025-292G","EPOCH":"2026-03-09T22:41:34.708704","MEAN_MOTION":15.05879657,"ECCENTRICITY":0.00150455,"INCLINATION":97.6425,"RA_OF_ASC_NODE":145.7524,"ARG_OF_PERICENTER":352.95,"MEAN_ANOMALY":7.1513,"EPHEMERIS_TYPE":0,"CLASSIFICATION_TYPE":"U","NORAD_CAT_ID":66999,"ELEMENT_SET_NO":999,"REV_AT_EPOCH":1351,"BSTAR":0.00047153864,"MEAN_MOTION_DOT":6.807e-5,"MEAN_MOTION_DDOT":0}]
